[{"OBJECT_NAME":"GOES 18","OBJECT_ID":"2022-021A","EPOCH":"2026-03-06T04:44:58.135776","MEAN_MOTION":1.00272933,"ECCENTRICITY":7.296e-5,"INCLINATION":0.0342,"RA_OF_ASC_NODE":75.4754,"ARG_OF_PERICENTER":328.9257,"MEAN_ANOMALY":53.7507,"EPHEMERIS_TYPE":0,"CLASSIFICATION_TYPE":"U","NORAD_CAT_ID":51850,"ELEMENT_SET_NO":999,"REV_AT_EPOCH":556,"BSTAR":0,"MEAN_MOTION_DOT":9.1e-7,"MEAN_MOTION_DDOT":0},{"OBJECT_NAME":"GOES 19","OBJECT_ID":"2024-119A","EPOCH":"2026-03-06T01:37:16.134240","MEAN_MOTION":1.002716,"ECCENTRICITY":0.00010742,"INCLINATION":0.0063,"RA_OF_ASC_NODE":87.288,"ARG_OF_PERICENTER":300.4838,"MEAN_ANOMALY":85.1354,"EPHEMERIS_TYPE":0,"CLASSIFICATION_TYPE":"U","NORAD_CAT_ID":60133,"ELEMENT_SET_NO":999,"REV_AT_EPOCH":593,"BSTAR":0,"MEAN_MOTION_DOT":-2.54e-6,"MEAN_MOTION_DDOT":0}]
